AMC-15                  
1 28446U 04041A   26073.54766203 -.00000090  00000+0  00000+0 0  9992
2 28446   0.0393 310.5573 0002318  40.4071 273.3068  1.00272655 78355
NSS-10                  
1 28526U 05003A   26073.41840419 -.00000249  00000+0  00000+0 0  9994
2 28526   6.2111  71.5931 0003167 282.6384 290.9760  1.00272666 52204
INMARSAT 4-F1           
1 28628U 05009A   26073.60381594  .00000035  00000+0  00000+0 0  9990
2 28628   5.0407  42.7191 0002925 341.8520 183.1422  1.00272381 76726
DIRECTV 8               
1 28659U 05019A   26073.58775518  .00000000  00000+0  00000+0 0  9997
2 28659   0.0169 167.1577 0003239 200.9293 256.6402  1.00272462 76129
GALAXY 28 (G-28)        
1 28702U 05022A   26073.42048420 -.00000199  00000+0  00000+0 0  9998
2 28702   3.0532  80.1159 0002117 285.5869 290.6081  1.00273207 51028
THAICOM 4               
1 28786U 05028A   26073.62474113  .00000000  00000+0  00000+0 0  9990
2 28786   0.0252 156.6222 0001955 216.3542 143.6650  1.00268516 51302
ANIK F1R                
1 28868U 05036A   26073.52434602 -.00000074  00000+0  00000+0 0  9990
2 28868   4.0691  77.7564 0002928 306.3166 229.5306  1.00272228 45501
SYRACUSE 3A             
1 28885U 05041B   26073.57764882  .00000132  00000+0  00000+0 0  9990
2 28885   4.4018  77.0054 0003758 276.1758  73.1582  1.00269817 74799
INMARSAT 4-F2           
1 28899U 05044A   26073.37628956 -.00000258  00000+0  00000+0 0  9997
2 28899   4.9701  43.7929 0002742 334.9327  72.2242  1.00271367 74578
METEOSAT-9 (MSG-2)      
1 28912U 05049B   26072.50792468  .00000128  00000+0  00000+0 0  9997
2 28912   9.1445  55.0898 0000184  58.1827 286.5308  1.00267419  6037
EUTELSAT 174A           
1 28924U 05052A   26073.60294927  .00000010  00000+0  00000+0 0  9993
2 28924   3.9776  77.6923 0006271 278.3508 207.2395  1.00270306 51386
ECHOSTAR 10             
1 28935U 06003A   26073.54662201 -.00000056  00000+0  00000+0 0  9990
2 28935   0.0430 303.2362 0001462  32.8612 282.6499  1.00272618 73513
SPAINSAT                
1 28945U 06007A   26072.60821875 -.00000217  00000+0  00000+0 0  9994
2 28945   0.3143  88.7936 0004262 273.1594 358.0308  1.00273755 73262
JCSAT-5A                
1 29045U 06010A   26073.56989043 -.00000328  00000+0  00000+0 0  9991
2 29045   0.8622  85.4346 0002274 331.5586  92.3852  1.00269131 72827
ASTRA 1KR               
1 29055U 06012A   26073.57227546  .00000118  00000+0  00000+0 0  9994
2 29055   0.2282  82.0059 0003179 268.2497  46.9327  1.00273870 44747
GALAXY 16 (G-16)        
1 29236U 06023A   26073.54887536 -.00000127  00000+0  00000+0 0  9996
2 29236   0.0272 216.7862 0002729 149.9608 263.9981  1.00270622 72023
EUTELSAT 33F            
1 29270U 06032A   26073.57504881  .00000155  00000+0  00000+0 0  9996
2 29270   1.4156  83.3384 0003473 277.2865  51.6703  1.00274395 46353
