[{"OBJECT_NAME":"AMC-15","OBJECT_ID":"2004-041A","EPOCH":"2026-03-14T13:08:37.999392","MEAN_MOTION":1.00272655,"ECCENTRICITY":0.00023188,"INCLINATION":0.0393,"RA_OF_ASC_NODE":310.5573,"ARG_OF_PERICENTER":40.4071,"MEAN_ANOMALY":273.3068,"EPHEMERIS_TYPE":0,"CLASSIFICATION_TYPE":"U","NORAD_CAT_ID":28446,"ELEMENT_SET_NO":999,"REV_AT_EPOCH":7835,"BSTAR":0,"MEAN_MOTION_DOT":-9.0e-7,"MEAN_MOTION_DDOT":0},{"OBJECT_NAME":"NSS-10","OBJECT_ID":"2005-003A","EPOCH":"2026-03-14T10:02:30.122016","MEAN_MOTION":1.00272666,"ECCENTRICITY":0.00031676,"INCLINATION":6.2111,"RA_OF_ASC_NODE":71.5931,"ARG_OF_PERICENTER":282.6384,"MEAN_ANOMALY":290.976,"EPHEMERIS_TYPE":0,"CLASSIFICATION_TYPE":"U","NORAD_CAT_ID":28526,"ELEMENT_SET_NO":999,"REV_AT_EPOCH":5220,"BSTAR":0,"MEAN_MOTION_DOT":-2.49e-6,"MEAN_MOTION_DDOT":0},{"OBJECT_NAME":"INMARSAT 4-F1","OBJECT_ID":"2005-009A","EPOCH":"2026-03-14T14:29:29.697216","MEAN_MOTION":1.00272381,"ECCENTRICITY":0.00029251,"INCLINATION":5.0407,"RA_OF_ASC_NODE":42.7191,"ARG_OF_PERICENTER":341.852,"MEAN_ANOMALY":183.1422,"EPHEMERIS_TYPE":0,"CLASSIFICATION_TYPE":"U","NORAD_CAT_ID":28628,"ELEMENT_SET_NO":999,"REV_AT_EPOCH":7672,"BSTAR":0,"MEAN_MOTION_DOT":3.5e-7,"MEAN_MOTION_DDOT":0},{"OBJECT_NAME":"DIRECTV 8","OBJECT_ID":"2005-019A","EPOCH":"2026-03-14T14:06:22.047552","MEAN_MOTION":1.00272462,"ECCENTRICITY":0.00032392,"INCLINATION":0.0169,"RA_OF_ASC_NODE":167.1577,"ARG_OF_PERICENTER":200.9293,"MEAN_ANOMALY":256.6402,"EPHEMERIS_TYPE":0,"CLASSIFICATION_TYPE":"U","NORAD_CAT_ID":28659,"ELEMENT_SET_NO":999,"REV_AT_EPOCH":7612,"BSTAR":0,"MEAN_MOTION_DOT":0,"MEAN_MOTION_DDOT":0},{"OBJECT_NAME":"GALAXY 28 (G-28)","OBJECT_ID":"2005-022A","EPOCH":"2026-03-14T10:05:29.834880","MEAN_MOTION":1.00273207,"ECCENTRICITY":0.0002117,"INCLINATION":3.0532,"RA_OF_ASC_NODE":80.1159,"ARG_OF_PERICENTER":285.5869,"MEAN_ANOMALY":290.6081,"EPHEMERIS_TYPE":0,"CLASSIFICATION_TYPE":"U","NORAD_CAT_ID":28702,"ELEMENT_SET_NO":999,"REV_AT_EPOCH":5102,"BSTAR":0,"MEAN_MOTION_DOT":-1.99e-6,"MEAN_MOTION_DDOT":0},{"OBJECT_NAME":"THAICOM 4","OBJECT_ID":"2005-028A","EPOCH":"2026-03-14T14:59:37.633632","MEAN_MOTION":1.00268516,"ECCENTRICITY":0.00019553,"INCLINATION":0.0252,"RA_OF_ASC_NODE":156.6222,"ARG_OF_PERICENTER":216.3542,"MEAN_ANOMALY":143.665,"EPHEMERIS_TYPE":0,"CLASSIFICATION_TYPE":"U","NORAD_CAT_ID":28786,"ELEMENT_SET_NO":999,"REV_AT_EPOCH":5130,"BSTAR":0,"MEAN_MOTION_DOT":0,"MEAN_MOTION_DDOT":0},{"OBJECT_NAME":"ANIK F1R","OBJECT_ID":"2005-036A","EPOCH":"2026-03-14T12:35:03.496128","MEAN_MOTION":1.00272228,"ECCENTRICITY":0.00029287,"INCLINATION":4.0691,"RA_OF_ASC_NODE":77.7564,"ARG_OF_PERICENTER":306.3166,"MEAN_ANOMALY":229.5306,"EPHEMERIS_TYPE":0,"CLASSIFICATION_TYPE":"U","NORAD_CAT_ID":28868,"ELEMENT_SET_NO":999,"REV_AT_EPOCH":4550,"BSTAR":0,"MEAN_MOTION_DOT":-7.4e-7,"MEAN_MOTION_DDOT":0},{"OBJECT_NAME":"SYRACUSE 3A","OBJECT_ID":"2005-041B","EPOCH":"2026-03-14T13:51:48.858048","MEAN_MOTION":1.00269817,"ECCENTRICITY":0.00037584,"INCLINATION":4.4018,"RA_OF_ASC_NODE":77.0054,"ARG_OF_PERICENTER":276.1758,"MEAN_ANOMALY":73.1582,"EPHEMERIS_TYPE":0,"CLASSIFICATION_TYPE":"U","NORAD_CAT_ID":28885,"ELEMENT_SET_NO":999,"REV_AT_EPOCH":7479,"BSTAR":0,"MEAN_MOTION_DOT":1.32e-6,"MEAN_MOTION_DDOT":0},{"OBJECT_NAME":"INMARSAT 4-F2","OBJECT_ID":"2005-044A","EPOCH":"2026-03-14T09:01:51.417984","MEAN_MOTION":1.00271367,"ECCENTRICITY":0.00027425,"INCLINATION":4.9701,"RA_OF_ASC_NODE":43.7929,"ARG_OF_PERICENTER":334.9327,"MEAN_ANOMALY":72.2242,"EPHEMERIS_TYPE":0,"CLASSIFICATION_TYPE":"U","NORAD_CAT_ID":28899,"ELEMENT_SET_NO":999,"REV_AT_EPOCH":7457,"BSTAR":0,"MEAN_MOTION_DOT":-2.58e-6,"MEAN_MOTION_DDOT":0},{"OBJECT_NAME":"METEOSAT-9 (MSG-2)","OBJECT_ID":"2005-049B","EPOCH":"2026-03-13T12:11:24.692352","MEAN_MOTION":1.00267419,"ECCENTRICITY":1.841e-5,"INCLINATION":9.1445,"RA_OF_ASC_NODE":55.0898,"ARG_OF_PERICENTER":58.1827,"MEAN_ANOMALY":286.5308,"EPHEMERIS_TYPE":0,"CLASSIFICATION_TYPE":"U","NORAD_CAT_ID":28912,"ELEMENT_SET_NO":999,"REV_AT_EPOCH":603,"BSTAR":0,"MEAN_MOTION_DOT":1.28e-6,"MEAN_MOTION_DDOT":0},{"OBJECT_NAME":"EUTELSAT 174A","OBJECT_ID":"2005-052A","EPOCH":"2026-03-14T14:28:14.816928","MEAN_MOTION":1.00270306,"ECCENTRICITY":0.00062711,"INCLINATION":3.9776,"RA_OF_ASC_NODE":77.6923,"ARG_OF_PERICENTER":278.3508,"MEAN_ANOMALY":207.2395,"EPHEMERIS_TYPE":0,"CLASSIFICATION_TYPE":"U","NORAD_CAT_ID":28924,"ELEMENT_SET_NO":999,"REV_AT_EPOCH":5138,"BSTAR":0,"MEAN_MOTION_DOT":1.0e-7,"MEAN_MOTION_DDOT":0},{"OBJECT_NAME":"ECHOSTAR 10","OBJECT_ID":"2006-003A","EPOCH":"2026-03-14T13:07:08.141664","MEAN_MOTION":1.00272618,"ECCENTRICITY":0.0001462,"INCLINATION":0.043,"RA_OF_ASC_NODE":303.2362,"ARG_OF_PERICENTER":32.8612,"MEAN_ANOMALY":282.6499,"EPHEMERIS_TYPE":0,"CLASSIFICATION_TYPE":"U","NORAD_CAT_ID":28935,"ELEMENT_SET_NO":999,"REV_AT_EPOCH":7351,"BSTAR":0,"MEAN_MOTION_DOT":-5.6e-7,"MEAN_MOTION_DDOT":0},{"OBJECT_NAME":"SPAINSAT","OBJECT_ID":"2006-007A","EPOCH":"2026-03-13T14:35:50.100000","MEAN_MOTION":1.00273755,"ECCENTRICITY":0.00042621,"INCLINATION":0.3143,"RA_OF_ASC_NODE":88.7936,"ARG_OF_PERICENTER":273.1594,"MEAN_ANOMALY":358.0308,"EPHEMERIS_TYPE":0,"CLASSIFICATION_TYPE":"U","NORAD_CAT_ID":28945,"ELEMENT_SET_NO":999,"REV_AT_EPOCH":7326,"BSTAR":0,"MEAN_MOTION_DOT":-2.17e-6,"MEAN_MOTION_DDOT":0},{"OBJECT_NAME":"JCSAT-5A","OBJECT_ID":"2006-010A","EPOCH":"2026-03-14T13:40:38.533152","MEAN_MOTION":1.00269131,"ECCENTRICITY":0.00022743,"INCLINATION":0.8622,"RA_OF_ASC_NODE":85.4346,"ARG_OF_PERICENTER":331.5586,"MEAN_ANOMALY":92.3852,"EPHEMERIS_TYPE":0,"CLASSIFICATION_TYPE":"U","NORAD_CAT_ID":29045,"ELEMENT_SET_NO":999,"REV_AT_EPOCH":7282,"BSTAR":0,"MEAN_MOTION_DOT":-3.28e-6,"MEAN_MOTION_DDOT":0},{"OBJECT_NAME":"ASTRA 1KR","OBJECT_ID":"2006-012A","EPOCH":"2026-03-14T13:44:04.599744","MEAN_MOTION":1.0027387,"ECCENTRICITY":0.00031792,"INCLINATION":0.2282,"RA_OF_ASC_NODE":82.0059,"ARG_OF_PERICENTER":268.2497,"MEAN_ANOMALY":46.9327,"EPHEMERIS_TYPE":0,"CLASSIFICATION_TYPE":"U","NORAD_CAT_ID":29055,"ELEMENT_SET_NO":999,"REV_AT_EPOCH":4474,"BSTAR":0,"MEAN_MOTION_DOT":1.18e-6,"MEAN_MOTION_DDOT":0},{"OBJECT_NAME":"GALAXY 16 (G-16)","OBJECT_ID":"2006-023A","EPOCH":"2026-03-14T13:10:22.831104","MEAN_MOTION":1.00270622,"ECCENTRICITY":0.00027294,"INCLINATION":0.0272,"RA_OF_ASC_NODE":216.7862,"ARG_OF_PERICENTER":149.9608,"MEAN_ANOMALY":263.9981,"EPHEMERIS_TYPE":0,"CLASSIFICATION_TYPE":"U","NORAD_CAT_ID":29236,"ELEMENT_SET_NO":999,"REV_AT_EPOCH":7202,"BSTAR":0,"MEAN_MOTION_DOT":-1.27e-6,"MEAN_MOTION_DDOT":0},{"OBJECT_NAME":"EUTELSAT 33F","OBJECT_ID":"2006-032A","EPOCH":"2026-03-14T13:48:04.217184","MEAN_MOTION":1.00274395,"ECCENTRICITY":0.00034732,"INCLINATION":1.4156,"RA_OF_ASC_NODE":83.3384,"ARG_OF_PERICENTER":277.2865,"MEAN_ANOMALY":51.6703,"EPHEMERIS_TYPE":0,"CLASSIFICATION_TYPE":"U","NORAD_CAT_ID":29270,"ELEMENT_SET_NO":999,"REV_AT_EPOCH":4635,"BSTAR":0,"MEAN_MOTION_DOT":1.55e-6,"MEAN_MOTION_DDOT":0}]
